IRIDIUM 136             
1 42962U 17061H   23326.35534639  .00000438  00000+0  14925-3 0  9990
2 42962  86.3988  57.1730 0001838 100.8889 259.2514 14.34223128320412
